SatCatId,ObjectName,LaunchYear,OrbitalPeriod,LaunchMass,StatusCode,Inclination,Status,UcsData,OrbitClassEstimated,LaunchSiteCountry,Owner,UseType,Purpose,LaunchVehicleClass,TLE1,TLE2,MeanMotion,Eccentricity,OrbitClass
47808,STARLINK-2389,2021,95.59,260.0,+,53.05,Active,1,LEO,USA,USA,Commercial,Communications,Falcon,1 47808U 21018X   25122.60246096  .00005260  00000+0  37188-3 0  9996,2 47808  53.0531 203.1427 0001573 104.2610 255.8554 15.06385898229836,15.06385898,0.0001573,LEO
47810,STARLINK-2391,2021,95.59,260.0,+,53.06,Active,1,LEO,USA,USA,Commercial,Communications,Falcon,1 47810U 21018Z   25122.56605205  .00001215  00000+0  10043-3 0  9992,2 47810  53.0536 218.3044 0001260  74.8980 285.2149 15.06395898229212,15.06395898,0.000126,LEO
47812,STARLINK-2393,2021,95.59,260.0,+,53.06,Active,1,LEO,USA,USA,Commercial,Communications,Falcon,1 47812U 21018AB  25122.44442846  .00000094  00000+0  25183-4 0  9997,2 47812  53.0563 218.8537 0001338 109.3385 250.7749 15.06395958229530,15.06395958,0.0001338,LEO
47814,STARLINK-2395,2021,95.59,260.0,+,53.05,Active,1,LEO,USA,USA,Commercial,Communications,Falcon,1 47814U 21018AD  25122.51906993  .00004876  00000+0  34585-3 0  9992,2 47814  53.0538 208.5171 0001552  92.3689 267.7478 15.06414507229360,15.06414507,0.0001552,LEO
47815,STARLINK-2396,2021,95.59,260.0,+,53.05,Active,1,LEO,USA,USA,Commercial,Communications,Falcon,1 47815U 21018AE  25122.48451056  .00006393  00000+0  44769-3 0  9995,2 47815  53.0525 203.6728 0001464  82.9560 277.1595 15.06401496229757,15.06401496,0.0001464,LEO
47816,STARLINK-2399,2021,95.59,260.0,+,53.05,Active,1,LEO,USA,USA,Commercial,Communications,Falcon,1 47816U 21018AF  25122.49326212  .00004130  00000+0  29597-3 0  9991,2 47816  53.0524 208.6302 0001372 101.5743 258.5400 15.06403063229681,15.06403063,0.0001372,LEO
47817,STARLINK-2400,2021,95.59,260.0,+,53.05,Active,1,LEO,USA,USA,Commercial,Communications,Falcon,1 47817U 21018AG  25122.44534257 -.00000034  00000+0  16620-4 0  9991,2 47817  53.0529 208.8436 0001180 109.3247 250.7870 15.06401644229676,15.06401644,0.000118,LEO
47818,STARLINK-2401,2021,95.59,260.0,+,53.05,Active,1,LEO,USA,USA,Commercial,Communications,Falcon,1 47818U 21018AH  25122.51678503  .00007734  00000+0  53754-3 0  9994,2 47818  53.0537 213.9923 0001295  84.5461 275.5675 15.06399900229289,15.063999,0.0001295,LEO
47819,STARLINK-2402,2021,95.59,260.0,+,53.05,Active,1,LEO,USA,USA,Commercial,Communications,Falcon,1 47819U 21018AJ  25122.51443823 -.00003958  00000+0 -24714-3 0  9990,2 47819  53.0538 208.5288 0001179  83.3581 276.7542 15.06374413229363,15.06374413,0.0001179,LEO
47821,STARLINK-2406,2021,95.59,260.0,+,53.05,Active,1,LEO,USA,USA,Commercial,Communications,Falcon,1 47821U 21018AL  25122.60752669  .00020178  00000+0  13699-2 0  9994,2 47821  53.0526 208.1278 0001336  71.6123 288.5011 15.06393633229700,15.06393633,0.0001336,LEO
47822,STARLINK-2407,2021,95.59,260.0,+,53.05,Active,1,LEO,USA,USA,Commercial,Communications,Falcon,1 47822U 21018AM  25122.55038420 -.00000018  00000+0  17706-4 0  9998,2 47822  53.0535 218.3670 0001132  81.3545 278.7572 15.06389780229565,15.0638978,0.0001132,LEO
47823,STARLINK-2408,2021,95.59,260.0,+,53.05,Active,1,LEO,USA,USA,Commercial,Communications,Falcon,1 47823U 21018AN  25122.49968371  .00012117  00000+0  83062-3 0  9998,2 47823  53.0535 208.5923 0001475  84.5034 275.6123 15.06414813229694,15.06414813,0.0001475,LEO
47824,STARLINK-2409,2021,95.59,260.0,+,53.05,Active,1,LEO,USA,USA,Commercial,Communications,Falcon,1 47824U 21018AP  25122.55592172  .00001215  00000+0  10042-3 0  9993,2 47824  53.0534 208.3497 0001336  94.9628 265.1514 15.06404784229692,15.06404784,0.0001336,LEO
47825,STARLINK-2410,2021,95.59,260.0,+,53.06,Active,1,LEO,USA,USA,Commercial,Communications,Falcon,1 47825U 21018AQ  25122.50800449 -.00003082  00000+0 -18811-3 0  9996,2 47825  53.0535 208.5659 0001462 101.7366 258.3787 15.06394339229355,15.06394339,0.0001462,LEO
47826,STARLINK-2411,2021,95.59,260.0,+,53.05,Active,1,LEO,USA,USA,Commercial,Communications,Falcon,1 47826U 21018AR  25122.50432214  .00001063  00000+0  90270-4 0  9993,2 47826  53.0544 208.5841 0001233  74.2405 285.8720 15.06399241229352,15.06399241,0.0001233,LEO
47827,STARLINK-2413,2021,95.59,260.0,+,53.05,Active,1,LEO,USA,USA,Commercial,Communications,Falcon,1 47827U 21018AS  25122.55318067 -.00012399  00000+0 -81494-3 0  9991,2 47827  53.0530 198.6071 0001308  75.0041 285.1093 15.06401341229890,15.06401341,0.0001308,LEO
47828,STARLINK-2415,2021,95.59,260.0,+,53.05,Active,1,LEO,USA,USA,Commercial,Communications,Falcon,1 47828U 21018AT  25122.62135506 -.00000045  00000+0  15867-4 0  9991,2 47828  53.0549 218.0618 0001476  90.6615 269.4543 15.06393480229575,15.0639348,0.0001476,LEO
47829,STARLINK-2416,2021,94.45,260.0,+,53.05,Active,1,LEO,USA,USA,Commercial,Communications,Falcon,1 47829U 21018AU  25122.58335648  .01120450  00000+0  37908-1 0  9996,2 47829  53.0520 216.8809 0001477  72.2740 314.2868 15.27549710  5897,15.2754971,0.0001477,LEO
47830,STARLINK-2419,2021,95.59,260.0,+,53.05,Active,1,LEO,USA,USA,Commercial,Communications,Falcon,1 47830U 21018AV  25122.56974462  .00014856  00000+0  10149-2 0  9999,2 47830  53.0532 218.2936 0001267  75.1406 284.9723 15.06371648229225,15.06371648,0.0001267,LEO
47831,STARLINK-2420,2021,95.59,260.0,+,53.05,Active,1,LEO,USA,USA,Commercial,Communications,Falcon,1 47831U 21018AW  25122.50387253 -.00001086  00000+0 -54071-4 0  9997,2 47831  53.0529 193.5843 0001214  84.3173 275.7955 15.06385645229563,15.06385645,0.0001214,LEO
47832,STARLINK-2422,2021,95.59,260.0,+,53.05,Active,1,LEO,USA,USA,Commercial,Communications,Falcon,1 47832U 21018AX  25122.52643928 -.00006474  00000+0 -41625-3 0  9990,2 47832  53.0550 208.4891 0001764  92.2043 267.9148 15.06384428229690,15.06384428,0.0001764,LEO
47833,STARLINK-2423,2021,95.59,260.0,+,53.05,Active,1,LEO,USA,USA,Commercial,Communications,Falcon,1 47833U 21018AY  25122.55223895  .00002516  00000+0  18773-3 0  9990,2 47833  53.0529 208.3705 0001327  95.8267 264.2874 15.06397224229753,15.06397224,0.0001327,LEO
47834,STARLINK-2424,2021,95.59,260.0,+,53.06,Active,1,LEO,USA,USA,Commercial,Communications,Falcon,1 47834U 21018AZ  25122.49695224  .00001743  00000+0  13589-3 0  9994,2 47834  53.0538 208.6180 0001572  96.1832 263.9337 15.06397096229744,15.06397096,0.0001572,LEO
47836,STARLINK-2426,2021,95.59,260.0,+,53.05,Active,1,LEO,USA,USA,Commercial,Communications,Falcon,1 47836U 21018BB  25122.51537532 -.00014816  00000+0 -97827-3 0  9990,2 47836  53.0533 208.6214 0001081  84.0348 276.0764 15.06384830229350,15.0638483,0.0001081,LEO
47837,STARLINK-2427,2021,95.59,260.0,+,53.05,Active,1,LEO,USA,USA,Commercial,Communications,Falcon,1 47837U 21018BC  25122.45826416  .00001285  00000+0  10513-3 0  9997,2 47837  53.0533 188.7914 0001180  84.2366 275.8757 15.06393775229973,15.06393775,0.000118,LEO
47838,STARLINK-2429,2021,95.59,260.0,+,53.05,Active,1,LEO,USA,USA,Commercial,Communications,Falcon,1 47838U 21018BD  25122.53749336  .00003297  00000+0  24011-3 0  9995,2 47838  53.0529 208.4289 0001334  66.1273 293.9856 15.06400137229366,15.06400137,0.0001334,LEO
47839,STARLINK-2431,2021,95.59,260.0,+,53.05,Active,1,LEO,USA,USA,Commercial,Communications,Falcon,1 47839U 21018BE  25122.43336601  .00001481  00000+0  11830-3 0  9990,2 47839  53.0552 178.9017 0001024  74.7144 285.3958 15.06391826230118,15.06391826,0.0001024,LEO
47840,STARLINK-2432,2021,95.59,260.0,+,53.05,Active,1,LEO,USA,USA,Commercial,Communications,Falcon,1 47840U 21018BF  25122.44350253  .00008691  00000+0  60161-3 0  9993,2 47840  53.0519 188.8491 0001456  89.7467 270.3689 15.06402794229965,15.06402794,0.0001456,LEO
47841,STARLINK-2433,2021,95.59,260.0,+,53.05,Active,1,LEO,USA,USA,Commercial,Communications,Falcon,1 47841U 21018BG  25122.50617427  .00004520  00000+0  32209-3 0  9999,2 47841  53.0532 188.5759 0001752  79.8986 280.2201 15.06403374229639,15.06403374,0.0001752,LEO
47843,STARLINK-2435,2021,95.59,260.0,+,53.05,Active,1,LEO,USA,USA,Commercial,Communications,Falcon,1 47843U 21018BJ  25122.53152603  .00011281  00000+0  77516-3 0  9996,2 47843  53.0534 213.4601 0001862  75.9695 284.1501 15.06392592229649,15.06392592,0.0001862,LEO
47844,STARLINK-2446,2021,95.59,260.0,+,53.06,Active,1,LEO,USA,USA,Commercial,Communications,Falcon,1 47844U 21018BK  25122.53012388 -.00001005  00000+0 -48579-4 0  9995,2 47844  53.0548 208.4670 0001545  94.3642 265.7523 15.06389421229691,15.06389421,0.0001545,LEO
47845,STARLINK-2453,2021,95.59,260.0,+,53.05,Active,1,LEO,USA,USA,Commercial,Communications,Falcon,1 47845U 21018BL  25122.54855203 -.00001016  00000+0 -49341-4 0  9998,2 47845  53.0531 208.3866 0001137  99.2977 260.8141 15.06397379229707,15.06397379,0.0001137,LEO
47851,SHIYAN-9 (SY-9),2021,1436.12,5000.0,+,17.43,Active,1,GSO,PRC,China,Government,Technology Development,Long March,1 47851U 21019A   25122.33656240 -.00000248  00000+0  00000+0 0  9992,2 47851  17.4206 307.7329 0013346  20.9433 159.8162  1.00269669 20010,1.00269669,0.0013346,GSO
47854,YAOGAN-31 04A,2021,107.03,500.0,+,63.41,Active,1,LEO,PRC,China,Military,Earth Observation,Long March,1 47854U 21020A   25122.58349119 -.00000021  00000+0  11003-3 0  9996,2 47854  63.4069 232.9489 0138450 358.9895   1.0831 13.45406512203226,13.45406512,0.013845,LEO
47856,YAOGAN-31 04B,2021,107.03,500.0,+,63.41,Active,1,LEO,PRC,China,Military,Earth Observation,Long March,1 47856U 21020C   25122.58365686 -.00000034  00000+0  90207-4 0  9993,2 47856  63.4064 233.7535 0138166 359.0634   1.0113 13.45405646203164,13.45405646,0.0138166,LEO
47857,YAOGAN-31 04C,2021,107.03,500.0,+,63.41,Active,1,LEO,PRC,China,Military,Earth Observation,Long March,1 47857U 21020D   25122.50936179 -.00000028  00000+0  98479-4 0  9999,2 47857  63.4075 233.1976 0138254 358.9604   1.1114 13.45404617203319,13.45404617,0.0138254,LEO
